{
    "links": {
        "self": "http://www.neowsapp.com/rest/v1/neo/3163758?api_key=iIulBulltgU6a56xZRHN4H3l9WmuAYTsLGpBGhQ2"
    },
    "id": "3163758",
    "neo_reference_id": "3163758",
    "name": "(2003 UP12)",
    "designation": "2003 UP12",
    "nasa_jpl_url": "http://ssd.jpl.nasa.gov/sbdb.cgi?sstr=3163758",
    "absolute_magnitude_h": 25.5,
    "estimated_diameter": {
        "kilometers": {
            "estimated_diameter_min": 0.0211132445,
            "estimated_diameter_max": 0.0472106499
        },
        "meters": {
            "estimated_diameter_min": 21.113244479,
            "estimated_diameter_max": 47.2106498806
        },
        "miles": {
            "estimated_diameter_min": 0.0131191578,
            "estimated_diameter_max": 0.0293353287
        },
        "feet": {
            "estimated_diameter_min": 69.2691770164,
            "estimated_diameter_max": 154.8905885541
        }
    },
    "is_potentially_hazardous_asteroid": false,
    "close_approach_data": [
        {
            "close_approach_date": "2003-10-26",
            "close_approach_date_full": "2003-Oct-26 17:13",
            "epoch_date_close_approach": 1067188380000,
            "relative_velocity": {
                "kilometers_per_second": "12.4865361893",
                "kilometers_per_hour": "44951.5302816164",
                "miles_per_hour": "27931.1328019299"
            },
            "miss_distance": {
                "astronomical": "0.0294643129",
                "lunar": "11.4616177181",
                "kilometers": "4407798.450853523",
                "miles": "2738878.9538556974"
            },
            "orbiting_body": "Earth"
        }
    ],
    "orbital_data": {
        "orbit_id": "9",
        "orbit_determination_date": "2017-04-06 09:13:38",
        "first_observation_date": "2003-10-21",
        "last_observation_date": "2003-10-26",
        "data_arc_in_days": 5,
        "observations_used": 36,
        "orbit_uncertainty": "8",
        "minimum_orbit_intersection": ".0289553",
        "jupiter_tisserand_invariant": "3.897",
        "epoch_osculation": "2452935.5",
        "eccentricity": ".4918319123846326",
        "semi_major_axis": "1.790706311815599",
        "inclination": "13.95163246776024",
        "ascending_node_longitude": "208.4609323242384",
        "orbital_period": "875.255751856212",
        "perihelion_distance": ".9099798019561008",
        "perihelion_argument": "231.4265498317236",
        "aphelion_distance": "2.671432821675098",
        "perihelion_time": "2452975.429474534225",
        "mean_anomaly": "343.5766736729969",
        "mean_motion": ".411308351000864",
        "equinox": "J2000",
        "orbit_class": {
            "orbit_class_type": "APO",
            "orbit_class_description": "Near-Earth asteroid orbits which cross the Earth’s orbit similar to that of 1862 Apollo",
            "orbit_class_range": "a (semi-major axis) > 1.0 AU; q (perihelion) < 1.017 AU"
        }
    },
    "is_sentry_object": false
}